STARLINK-32809          
1 62849U 25019W   26068.09588428  .00027823  00000+0  10160-2 0  9993
2 62849  42.9999  92.0262 0000849 278.1182  81.9574 15.27604303 62164
COSMOS 2588             
1 64095U 25109A   26068.81179522  .00009169  00000+0  32611-3 0  9998
2 64095  72.9704  73.5401 0005019 308.6780  51.3966 15.29122656 44425
